EUTELSAT QUANTUM        
1 49056U 21069B   25219.83823475  .00000130  00000+0  00000+0 0  9993
2 49056   0.0598 276.0924 0002152 230.7524 159.2159  1.00269876 14771
EUTELSAT KONNECT VHTS   
1 53765U 22110A   25219.32962054  .00000021  00000+0  00000+0 0  9993
2 53765   0.0564  99.3412 0002862  28.0218 310.1108  1.00268236 10643
EUTELSAT HOTBIRD 13F    
1 54048U 22134A   25220.11682045  .00000090  00000+0  00000+0 0  9998
2 54048   0.0629 280.5052 0001897  85.2394   6.1780  1.00269393 10295
EUTELSAT HOTBIRD 13G    
1 54225U 22146A   25219.68854324  .00000091  00000+0  00000+0 0  9990
2 54225   0.0583 249.5371 0002113 286.7327  41.0598  1.00271010 10076
EUTELSAT 10B            
1 54259U 22157A   25219.54523220  .00000073  00000+0  00000+0 0  9992
2 54259   0.0510  96.1388 0001672  22.9562  43.5071  1.00271682  9905
EUTELSAT 36D            
1 59346U 24059A   25219.83580807  .00000000  00000+0  00000+0 0  9993
2 59346   0.0280 100.4319 0000400  38.9381 153.9717  1.00270223  5008
